[{"OBJECT_NAME":"STARLINK-34821","OBJECT_ID":"2025-176B","EPOCH":"2026-03-09T12:09:27.470016","MEAN_MOTION":15.30192398,"ECCENTRICITY":0.00010937,"INCLINATION":53.159,"RA_OF_ASC_NODE":153.4898,"ARG_OF_PERICENTER":99.2619,"MEAN_ANOMALY":260.8506,"EPHEMERIS_TYPE":0,"CLASSIFICATION_TYPE":"U","NORAD_CAT_ID":65199,"ELEMENT_SET_NO":999,"REV_AT_EPOCH":3303,"BSTAR":0.00088866076,"MEAN_MOTION_DOT":0.00026046,"MEAN_MOTION_DDOT":0},{"OBJECT_NAME":"ARIANE 40 R\/B","OBJECT_ID":"1999-064C","EPOCH":"2026-03-09T18:24:37.025280","MEAN_MOTION":15.31364882,"ECCENTRICITY":0.00050095,"INCLINATION":98.1631,"RA_OF_ASC_NODE":150.8872,"ARG_OF_PERICENTER":91.4057,"MEAN_ANOMALY":268.7755,"EPHEMERIS_TYPE":0,"CLASSIFICATION_TYPE":"U","NORAD_CAT_ID":25979,"ELEMENT_SET_NO":999,"REV_AT_EPOCH":42869,"BSTAR":0.00066758353,"MEAN_MOTION_DOT":0.00020173,"MEAN_MOTION_DDOT":0}]
